[
  {
    "id": 1,
    "user_id": "user_1",
    "address_name": "주소명_1",
    "name": "수령자_1",
    "status": "true",
    "phone_nb": "010-9676-1947",
    "zip_code": "345043",
    "address_1": "서울특별시",
    "address_2": "랜덤 주소 873번지"
  },
  {
    "id": 2,
    "user_id": "user_1",
    "address_name": "주소명_2",
    "name": "수령자_1",
    "status": "false",
    "phone_nb": "010-9676-1947",
    "zip_code": "345043",
    "address_1": "서울특별시",
    "address_2": "랜덤 주소 873번지"
  },
  {
    "id": 3,
    "user_id": "user_1",
    "address_name": "주소명_3",
    "name": "수령자_1",
    "status": "false",
    "phone_nb": "010-9676-1947",
    "zip_code": "345043",
    "address_1": "서울특별시",
    "address_2": "랜덤 주소 873번지"
  },
  {
    "id": 4,
    "user_id": "user_1",
    "address_name": "주소명_4",
    "name": "수령자_1",
    "status": "false",
    "phone_nb": "010-9676-1947",
    "zip_code": "345043",
    "address_1": "서울특별시",
    "address_2": "랜덤 주소 873번지"
  },
  {
    "id": 5,
    "user_id": "user_1",
    "address_name": "주소명_5",
    "name": "수령자_1",
    "status": "false",
    "phone_nb": "010-9676-1947",
    "zip_code": "345043",
    "address_1": "서울특별시",
    "address_2": "랜덤 주소 873번지"
  },
  {
    "id": 6,
    "user_id": "user_2",
    "address_name": "주소명_2",
    "name": "수령자_2",
    "status": "false",
    "phone_nb": "010-8549-2938",
    "zip_code": "212921",
    "address_1": "강원도",
    "address_2": "랜덤 주소 886번지"
  },
  {
    "id": 7,
    "user_id": "user_3",
    "address_name": "주소명_3",
    "name": "수령자_3",
    "status": "false",
    "phone_nb": "010-7414-5619",
    "zip_code": "219104",
    "address_1": "경상남도",
    "address_2": "랜덤 주소 853번지"
  },
  {
    "id": 8,
    "user_id": "user_4",
    "address_name": "주소명_4",
    "name": "수령자_4",
    "status": "false",
    "phone_nb": "010-7804-5520",
    "zip_code": "623830",
    "address_1": "경상북도",
    "address_2": "랜덤 주소 594번지"
  },
  {
    "id": 9,
    "user_id": "user_5",
    "address_name": "주소명_5",
    "name": "수령자_5",
    "status": "false",
    "phone_nb": "010-0068-9823",
    "zip_code": "010363",
    "address_1": "충청남도",
    "address_2": "랜덤 주소 768번지"
  },
  {
    "id": 10,
    "user_id": "user_6",
    "address_name": "주소명_6",
    "name": "수령자_6",
    "status": "false",
    "phone_nb": "010-5394-3733",
    "zip_code": "684998",
    "address_1": "서울특별시",
    "address_2": "랜덤 주소 628번지"
  },
  {
    "id": 11,
    "user_id": "user_7",
    "address_name": "주소명_7",
    "name": "수령자_7",
    "status": "false",
    "phone_nb": "010-1815-0011",
    "zip_code": "117182",
    "address_1": "강원도",
    "address_2": "랜덤 주소 757번지"
  },
  {
    "id": 12,
    "user_id": "user_8",
    "address_name": "주소명_8",
    "name": "수령자_8",
    "status": "false",
    "phone_nb": "010-7638-8686",
    "zip_code": "235813",
    "address_1": "전라남도",
    "address_2": "랜덤 주소 826번지"
  },
  {
    "id": 13,
    "user_id": "user_9",
    "address_name": "주소명_9",
    "name": "수령자_9",
    "status": "false",
    "phone_nb": "010-8388-5404",
    "zip_code": "151978",
    "address_1": "서울특별시",
    "address_2": "랜덤 주소 357번지"
  },
  {
    "id": 14,
    "user_id": "user_10",
    "address_name": "주소명_10",
    "name": "수령자_10",
    "status": "false",
    "phone_nb": "010-5830-8210",
    "zip_code": "768687",
    "address_1": "경상북도",
    "address_2": "랜덤 주소 59번지"
  },
  {
    "id": 15,
    "user_id": "user_11",
    "address_name": "주소명_11",
    "name": "수령자_11",
    "status": "false",
    "phone_nb": "010-3889-2281",
    "zip_code": "246189",
    "address_1": "제주특별자치도",
    "address_2": "랜덤 주소 65번지"
  },
  {
    "id": 16,
    "user_id": "user_12",
    "address_name": "주소명_12",
    "name": "수령자_12",
    "status": "false",
    "phone_nb": "010-0765-5986",
    "zip_code": "901574",
    "address_1": "전라남도",
    "address_2": "랜덤 주소 131번지"
  },
  {
    "id": 17,
    "user_id": "user_13",
    "address_name": "주소명_13",
    "name": "수령자_13",
    "status": "false",
    "phone_nb": "010-8645-2977",
    "zip_code": "674359",
    "address_1": "서울특별시",
    "address_2": "랜덤 주소 30번지"
  },
  {
    "id": 18,
    "user_id": "user_14",
    "address_name": "주소명_14",
    "name": "수령자_14",
    "status": "false",
    "phone_nb": "010-1685-2970",
    "zip_code": "210366",
    "address_1": "대전광역시",
    "address_2": "랜덤 주소 161번지"
  },
  {
    "id": 19,
    "user_id": "user_15",
    "address_name": "주소명_15",
    "name": "수령자_15",
    "status": "false",
    "phone_nb": "010-1323-0535",
    "zip_code": "132838",
    "address_1": "경상남도",
    "address_2": "랜덤 주소 576번지"
  },
  {
    "id": 20,
    "user_id": "user_16",
    "address_name": "주소명_16",
    "name": "수령자_16",
    "status": "false",
    "phone_nb": "010-5329-8216",
    "zip_code": "104815",
    "address_1": "전라북도",
    "address_2": "랜덤 주소 217번지"
  },
  {
    "id": 21,
    "user_id": "user_17",
    "address_name": "주소명_17",
    "name": "수령자_17",
    "status": "false",
    "phone_nb": "010-9578-0606",
    "zip_code": "988385",
    "address_1": "경상북도",
    "address_2": "랜덤 주소 7번지"
  },
  {
    "id": 22,
    "user_id": "user_18",
    "address_name": "주소명_18",
    "name": "수령자_18",
    "status": "false",
    "phone_nb": "010-8382-4493",
    "zip_code": "076525",
    "address_1": "울산광역시",
    "address_2": "랜덤 주소 647번지"
  },
  {
    "id": 23,
    "user_id": "user_19",
    "address_name": "주소명_19",
    "name": "수령자_19",
    "status": "false",
    "phone_nb": "010-6408-7378",
    "zip_code": "384721",
    "address_1": "울산광역시",
    "address_2": "랜덤 주소 665번지"
  },
  {
    "id": 24,
    "user_id": "user_20",
    "address_name": "주소명_20",
    "name": "수령자_20",
    "status": "false",
    "phone_nb": "010-1783-0122",
    "zip_code": "874189",
    "address_1": "광주광역시",
    "address_2": "랜덤 주소 251번지"
  }
]